[{"OBJECT_NAME":"IRIDIUM 155","OBJECT_ID":"2018-061E","EPOCH":"2026-03-09T14:54:30.448800","MEAN_MOTION":14.34217216,"ECCENTRICITY":0.000198,"INCLINATION":86.3914,"RA_OF_ASC_NODE":98.3248,"ARG_OF_PERICENTER":94.0732,"MEAN_ANOMALY":266.069,"EPHEMERIS_TYPE":0,"CLASSIFICATION_TYPE":"U","NORAD_CAT_ID":43573,"ELEMENT_SET_NO":999,"REV_AT_EPOCH":39908,"BSTAR":-1.8836e-5,"MEAN_MOTION_DOT":-3.3e-7,"MEAN_MOTION_DDOT":0},{"OBJECT_NAME":"DMSP 5D-3 F18 DEB","OBJECT_ID":"2009-057F","EPOCH":"2026-03-09T14:44:05.418240","MEAN_MOTION":14.31505611,"ECCENTRICITY":0.0009725,"INCLINATION":98.4907,"RA_OF_ASC_NODE":89.9487,"ARG_OF_PERICENTER":9.6671,"MEAN_ANOMALY":350.4697,"EPHEMERIS_TYPE":0,"CLASSIFICATION_TYPE":"U","NORAD_CAT_ID":36100,"ELEMENT_SET_NO":999,"REV_AT_EPOCH":84583,"BSTAR":0.0011443,"MEAN_MOTION_DOT":3.0e-5,"MEAN_MOTION_DDOT":0}]
